[{"OBJECT_NAME":"ONEWEB-0426","OBJECT_ID":"2021-132AF","EPOCH":"2026-03-09T20:09:20.587104","MEAN_MOTION":13.18689069,"ECCENTRICITY":0.00012833,"INCLINATION":87.9251,"RA_OF_ASC_NODE":355.1757,"ARG_OF_PERICENTER":59.3832,"MEAN_ANOMALY":300.7427,"EPHEMERIS_TYPE":0,"CLASSIFICATION_TYPE":"U","NORAD_CAT_ID":50498,"ELEMENT_SET_NO":999,"REV_AT_EPOCH":20849,"BSTAR":-0.0020859179,"MEAN_MOTION_DOT":-8.09e-6,"MEAN_MOTION_DDOT":0},{"OBJECT_NAME":"SL-14 DEB","OBJECT_ID":"1991-056CY","EPOCH":"2026-03-08T18:48:48.336192","MEAN_MOTION":13.23680367,"ECCENTRICITY":0.00275951,"INCLINATION":82.5758,"RA_OF_ASC_NODE":199.9582,"ARG_OF_PERICENTER":276.4141,"MEAN_ANOMALY":83.3844,"EPHEMERIS_TYPE":0,"CLASSIFICATION_TYPE":"U","NORAD_CAT_ID":45654,"ELEMENT_SET_NO":999,"REV_AT_EPOCH":29129,"BSTAR":0.0015961845,"MEAN_MOTION_DOT":6.91e-6,"MEAN_MOTION_DDOT":0}]
